{
  "type": "FeatureCollection",
  "features": [
    {
      "type": "Feature",
      "properties": {
        "norad_id": 26766,
        "name": "INTELSAT 10 (IS-10)",
        "group": "intelsat",
        "lat": -7.829693454204445,
        "lon": -54.59007093920986,
        "alt_km": 36094.45851294993,
        "timestamp": "2025-12-21T07:34:34.207575+00:00",
        "meta_object_name": "INTELSAT 10 (IS-10)",
        "meta_object_id": "2001-019A",
        "meta_epoch": "2025-12-20T17:29:18.796128",
        "meta_mean_motion": 0.9907436,
        "meta_eccentricity": 0.00077475,
        "meta_inclination": 8.6473,
        "meta_ra_of_asc_node": 61.0766,
        "meta_arg_of_pericenter": 228.8053,
        "meta_mean_anomaly": 166.3968,
        "meta_ephemeris_type": 0,
        "meta_classification_type": "U",
        "meta_norad_cat_id": 26766,
        "meta_element_set_no": 999,
        "meta_rev_at_epoch": 4381,
        "meta_bstar": 0,
        "meta_mean_motion_dot": -1.02e-06,
        "meta_mean_motion_ddot": 0,
        "tle_line1": "1 26766U 01019A   25354.72868977 -.00000102  00000+0  00000+0 0  9993",
        "tle_line2": "2 26766   8.6473  61.0766 0007747 228.8053 166.3968  0.99074360 43819"
      },
      "geometry": {
        "type": "Point",
        "coordinates": [
          -54.59007093920986,
          -7.829693454204445
        ]
      }
    },
    {
      "type": "Feature",
      "properties": {
        "norad_id": 26900,
        "name": "INTELSAT 902 (IS-902)",
        "group": "intelsat",
        "lat": 5.591043834198431,
        "lon": 153.53273269911344,
        "alt_km": 35792.83335162881,
        "timestamp": "2025-12-21T07:34:34.207598+00:00",
        "meta_object_name": "INTELSAT 902 (IS-902)",
        "meta_object_id": "2001-039A",
        "meta_epoch": "2025-12-15T13:09:02.081664",
        "meta_mean_motion": 1.0027087,
        "meta_eccentricity": 0.00045028,
        "meta_inclination": 5.6536,
        "meta_ra_of_asc_node": 74.0372,
        "meta_arg_of_pericenter": 189.6359,
        "meta_mean_anomaly": 327.9329,
        "meta_ephemeris_type": 0,
        "meta_classification_type": "U",
        "meta_norad_cat_id": 26900,
        "meta_element_set_no": 999,
        "meta_rev_at_epoch": 8885,
        "meta_bstar": 0,
        "meta_mean_motion_dot": -2.65e-06,
        "meta_mean_motion_ddot": 0,
        "tle_line1": "1 26900U 01039A   25349.54794076 -.00000265  00000+0  00000+0 0  9997",
        "tle_line2": "2 26900   5.6536  74.0372 0004502 189.6359 327.9329  1.00270870 88858"
      },
      "geometry": {
        "type": "Point",
        "coordinates": [
          153.53273269911344,
          5.591043834198431
        ]
      }
    },
    {
      "type": "Feature",
      "properties": {
        "norad_id": 27380,
        "name": "INTELSAT 904 (IS-904)",
        "group": "intelsat",
        "lat": 6.3665949054922235,
        "lon": 172.33103154124063,
        "alt_km": 35791.97550104762,
        "timestamp": "2025-12-21T07:34:34.207612+00:00",
        "meta_object_name": "INTELSAT 904 (IS-904)",
        "meta_object_id": "2002-007A",
        "meta_epoch": "2025-12-20T14:47:29.637600",
        "meta_mean_motion": 1.00270901,
        "meta_eccentricity": 0.00018083,
        "meta_inclination": 6.473,
        "meta_ra_of_asc_node": 71.342,
        "meta_arg_of_pericenter": 248.5545,
        "meta_mean_anomaly": 319.9209,
        "meta_ephemeris_type": 0,
        "meta_classification_type": "U",
        "meta_norad_cat_id": 27380,
        "meta_element_set_no": 999,
        "meta_rev_at_epoch": 4997,
        "meta_bstar": 0,
        "meta_mean_motion_dot": -2.07e-06,
        "meta_mean_motion_ddot": 0,
        "tle_line1": "1 27380U 02007A   25354.61631525 -.00000207  00000+0  00000+0 0  9995",
        "tle_line2": "2 27380   6.4730  71.3420 0001808 248.5545 319.9209  1.00270901 49971"
      },
      "geometry": {
        "type": "Point",
        "coordinates": [
          172.33103154124063,
          6.3665949054922235
        ]
      }
    },
    {
      "type": "Feature",
      "properties": {
        "norad_id": 27426,
        "name": "DIRECTV 5 (TEMPO 1)",
        "group": "intelsat",
        "lat": 1.2517418778148177,
        "lon": 93.61019723073106,
        "alt_km": 35799.124345824355,
        "timestamp": "2025-12-21T07:34:34.207624+00:00",
        "meta_object_name": "DIRECTV 5 (TEMPO 1)",
        "meta_object_id": "2002-023A",
        "meta_epoch": "2025-12-20T21:15:58.349664",
        "meta_mean_motion": 1.00271691,
        "meta_eccentricity": 0.00031112,
        "meta_inclination": 4.4215,
        "meta_ra_of_asc_node": 77.5576,
        "meta_arg_of_pericenter": 198.1661,
        "meta_mean_anomaly": 22.8633,
        "meta_ephemeris_type": 0,
        "meta_classification_type": "U",
        "meta_norad_cat_id": 27426,
        "meta_element_set_no": 999,
        "meta_rev_at_epoch": 8633,
        "meta_bstar": 0,
        "meta_mean_motion_dot": -3.7e-07,
        "meta_mean_motion_ddot": 0,
        "tle_line1": "1 27426U 02023A   25354.88609201 -.00000037  00000+0  00000+0 0  9990",
        "tle_line2": "2 27426   4.4215  77.5576 0003111 198.1661  22.8633  1.00271691 86335"
      },
      "geometry": {
        "type": "Point",
        "coordinates": [
          93.61019723073106,
          1.2517418778148177
        ]
      }
    },
    {
      "type": "Feature",
      "properties": {
        "norad_id": 27438,
        "name": "INTELSAT 905 (IS-905)",
        "group": "intelsat",
        "lat": -0.5693469942943143,
        "lon": 66.61498320972538,
        "alt_km": 35795.88359264256,
        "timestamp": "2025-12-21T07:34:34.207635+00:00",
        "meta_object_name": "INTELSAT 905 (IS-905)",
        "meta_object_id": "2002-027A",
        "meta_epoch": "2025-12-20T10:52:51.499776",
        "meta_mean_motion": 1.00272487,
        "meta_eccentricity": 0.00026639,
        "meta_inclination": 6.3037,
        "meta_ra_of_asc_node": 71.9674,
        "meta_arg_of_pericenter": 202.299,
        "meta_mean_anomaly": 201.0262,
        "meta_ephemeris_type": 0,
        "meta_classification_type": "U",
        "meta_norad_cat_id": 27438,
        "meta_element_set_no": 999,
        "meta_rev_at_epoch": 4957,
        "meta_bstar": 0,
        "meta_mean_motion_dot": 1.12e-06,
        "meta_mean_motion_ddot": 0,
        "tle_line1": "1 27438U 02027A   25354.45337384  .00000112  00000+0  00000+0 0  9993",
        "tle_line2": "2 27438   6.3037  71.9674 0002663 202.2990 201.0262  1.00272487 49579"
      },
      "geometry": {
        "type": "Point",
        "coordinates": [
          66.61498320972538,
          -0.5693469942943143
        ]
      }
    },
    {
      "type": "Feature",
      "properties": {
        "norad_id": 27445,
        "name": "GALAXY 3C (G-3C)",
        "group": "intelsat",
        "lat": 1.5919403222786634,
        "lon": 108.86567055280952,
        "alt_km": 35782.80531540309,
        "timestamp": "2025-12-21T07:34:34.207658+00:00",
        "meta_object_name": "GALAXY 3C (G-3C)",
        "meta_object_id": "2002-030A",
        "meta_epoch": "2025-12-20T14:29:31.358688",
        "meta_mean_motion": 1.00271785,
        "meta_eccentricity": 0.00011359,
        "meta_inclination": 3.2823,
        "meta_ra_of_asc_node": 80.4246,
        "meta_arg_of_pericenter": 78.1134,
        "meta_mean_anomaly": 53.4191,
        "meta_ephemeris_type": 0,
        "meta_classification_type": "U",
        "meta_norad_cat_id": 27445,
        "meta_element_set_no": 999,
        "meta_rev_at_epoch": 4470,
        "meta_bstar": 0,
        "meta_mean_motion_dot": -1.32e-06,
        "meta_mean_motion_ddot": 0,
        "tle_line1": "1 27445U 02030A   25354.60383517 -.00000132  00000+0  00000+0 0  9994",
        "tle_line2": "2 27445   3.2823  80.4246 0001135  78.1134  53.4191  1.00271785 44709"
      },
      "geometry": {
        "type": "Point",
        "coordinates": [
          108.86567055280952,
          1.5919403222786634
        ]
      }
    },
    {
      "type": "Feature",
      "properties": {
        "norad_id": 27513,
        "name": "INTELSAT 906 (IS-906)",
        "group": "intelsat",
        "lat": -1.2067726365016784,
        "lon": -92.14984577771665,
        "alt_km": 35759.30896580672,
        "timestamp": "2025-12-21T07:34:34.207670+00:00",
        "meta_object_name": "INTELSAT 906 (IS-906)",
        "meta_object_id": "2002-041A",
        "meta_epoch": "2025-12-20T20:07:29.951904",
        "meta_mean_motion": 1.00272914,
        "meta_eccentricity": 0.0006313,
        "meta_inclination": 5.3501,
        "meta_ra_of_asc_node": 75.1356,
        "meta_arg_of_pericenter": 199.098,
        "meta_mean_anomaly": 181.4397,
        "meta_ephemeris_type": 0,
        "meta_classification_type": "U",
        "meta_norad_cat_id": 27513,
        "meta_element_set_no": 999,
        "meta_rev_at_epoch": 8524,
        "meta_bstar": 0,
        "meta_mean_motion_dot": 3.2e-07,
        "meta_mean_motion_ddot": 0,
        "tle_line1": "1 27513U 02041A   25354.83854111  .00000032  00000+0  00000+0 0  9998",
        "tle_line2": "2 27513   5.3501  75.1356 0006313 199.0980 181.4397  1.00272914 85248"
      },
      "geometry": {
        "type": "Point",
        "coordinates": [
          -92.14984577771665,
          -1.2067726365016784
        ]
      }
    }
  ]
}